IRIDIUM 166             
1 43570U 18061B   24179.91183377  .00000560  00000+0  19305-3 0  9998
2 43570  86.3977 357.3278 0002294  95.3948 264.7509 14.34218580310307
IRIDIUM 158             
1 43571U 18061C   24179.94988112  .00000451  00000+0  15408-3 0  9991
2 43571  86.3976 357.3210 0002287  89.1063 271.0395 14.34220834310279
IRIDIUM 165             
1 43572U 18061D   24179.90548981  .00000002  00000+0 -63281-5 0  9991
2 43572  86.3972 357.3723 0002155  88.4667 271.6776 14.34217784310292
IRIDIUM 155             
1 43573U 18061E   24179.93720409  .00000063  00000+0  15281-4 0  9994
2 43573  86.3972 357.2636 0002255  95.3512 264.7941 14.34218004310262
IRIDIUM 154             
1 43574U 18061F   24179.91817586  .00000042  00000+0  79663-5 0  9998
2 43574  86.3976 357.3698 0002003  86.2778 273.8647 14.34217802310315
IRIDIUM 163             
1 43575U 18061G   24179.89914783  .00000024  00000+0  14525-5 0  9999
2 43575  86.3975 357.3156 0002126  90.9733 269.1706 14.34217815310287
IRIDIUM 156             
1 43576U 18061H   24179.94354642  .00000043  00000+0  83235-5 0  9993
2 43576  86.3975 357.3034 0002284  89.9882 270.1576 14.34217479310284
IRIDIUM 164             
1 43577U 18061J   24179.92451826  .00000218  00000+0  70946-4 0  9992
2 43577  86.3977 357.3406 0002218  83.7582 276.3866 14.34217610310328
